IRIDIUM 119             
1 42959U 17061E   24049.90428714  .00000600  00000+0  20702-3 0  9997
2 42959  86.3990  20.1473 0001988  84.8619 275.2804 14.34220549333084
IRIDIUM 107             
1 42960U 17061F   24049.92331649  .00000544  00000+0  18733-3 0  9999
2 42960  86.3989  20.1554 0002042  94.2570 265.8859 14.34216980333097
IRIDIUM 132             
1 42961U 17061G   24049.92966040  .00000548  00000+0  18855-3 0  9998
2 42961  86.3989  20.1381 0002007  91.6340 268.5086 14.34216816333093
IRIDIUM 136             
1 42962U 17061H   24049.96136898  .00000121  00000+0  36110-4 0  9995
2 42962  86.3989  20.1276 0002054  79.9849 280.1579 14.34215966333117
IRIDIUM 139             
1 42963U 17061J   24049.96771404  .00000065  00000+0  16285-4 0  9992
2 42963  86.3991  20.1734 0002063  91.8420 268.3012 14.34215582333123
IRIDIUM 125             
1 42964U 17061K   24049.95502520  .00000076  00000+0  20239-4 0  9999
2 42964  86.3991  20.2241 0001764  87.1612 272.9786 14.34214321333136
IRIDIUM 135             
1 43070U 17083A   24049.78961508  .00000514  00000+0  17654-3 0  9991
2 43070  86.3992 317.0155 0002411  88.7482 271.3990 14.34215465322407
IRIDIUM 138             
1 43071U 17083B   24049.81498997 -.00000044  00000+0 -22797-4 0  9998
2 43071  86.3979 316.7368 0001723  79.7874 280.3516 14.34217065322395
